[{"OBJECT_NAME":"USA 119","OBJECT_ID":"1996-029A","EPOCH":"2026-03-09T10:00:09.129312","MEAN_MOTION":13.45886981,"ECCENTRICITY":0.0846389,"INCLINATION":63.3196,"RA_OF_ASC_NODE":93.119,"ARG_OF_PERICENTER":47.6314,"MEAN_ANOMALY":319.3281,"EPHEMERIS_TYPE":0,"CLASSIFICATION_TYPE":"U","NORAD_CAT_ID":23893,"ELEMENT_SET_NO":999,"REV_AT_EPOCH":9184,"BSTAR":0.00029025737,"MEAN_MOTION_DOT":1.64e-5,"MEAN_MOTION_DDOT":0},{"OBJECT_NAME":"SL-8 DEB","OBJECT_ID":"1971-114D","EPOCH":"2026-03-09T21:09:22.343904","MEAN_MOTION":15.17425388,"ECCENTRICITY":0.00068282,"INCLINATION":73.9839,"RA_OF_ASC_NODE":358.0676,"ARG_OF_PERICENTER":210.5814,"MEAN_ANOMALY":149.4984,"EPHEMERIS_TYPE":0,"CLASSIFICATION_TYPE":"U","NORAD_CAT_ID":5858,"ELEMENT_SET_NO":999,"REV_AT_EPOCH":89033,"BSTAR":0.0013634837,"MEAN_MOTION_DOT":0.00027356,"MEAN_MOTION_DDOT":0}]
